SatCatId,ObjectName,LaunchYear,OrbitalPeriod,LaunchMass,StatusCode,Status,UcsData,OrbitClass,LaunchSiteCountry,Owner,UseType,Purpose,LaunchVehicleClass,TLE1,TLE2
4512,OPS 0203 (DMSP 5A F2),1970,100.36,-1.0,-,Inactive,0,LEO,USA,USA,Unknown,Unknown,Unknown,1 04512U 70070A   22135.59714296  .00000219  00000+0  91515-4 0  9998,2 04512  98.8745  25.4147 0064599 161.5766 198.7779 14.34829182697320
29092,RSS-1 (YAOGAN 1),2006,97.08,-1.0,UNK,Inactive,0,LEO,PRC,China,Unknown,Unknown,Unknown,1 29092U 06015A   22135.55861213  .00000764  00000+0  99609-4 0  9991,2 29092  97.8758 163.9732 0001517  90.8761 269.2627 14.83387217868060
20918,INMARSAT 2-F1,1990,1456.36,-1.0,-,Inactive,0,GEO,USA,INMARSAT,Unknown,Unknown,Unknown,1 20918U 90093A   22132.85002560 -.00000021  00000+0  00000+0 0  9999,2 20918  12.3599  15.1114 0010942   9.7024 186.0003  0.98876512 32720
20923,GORIZONT 21,1990,1434.59,-1.0,-,Inactive,0,GEO,Kazakhstan,Russia/USSR,Unknown,Unknown,Unknown,1 20923U 90094A   22135.26357201  .00000039  00000+0  00000+0 0  9997,2 20923  14.1335 348.0875 0003129 181.0637  26.4392  1.00377157115465
20929,USA 65 (DSP 15),1990,1463.43,-1.0,-,Inactive,0,GEO,USA,USA,Unknown,Unknown,Unknown,1 20929U 90095A   22133.45260677 -.00000189  00000+0  00000+0 0  9990,2 20929  14.9244 354.8837 0010129  62.8438 297.2287  0.98398716 10740
20945,SATCOM C1,1990,1451.85,-1.0,UNK,Inactive,0,GEO,French Guiana,USA,Unknown,Unknown,Unknown,1 20945U 90100A   22133.85412802  .00000011  00000+0  00000+0 0  9991,2 20945  12.0958  25.1482 0017778   8.0473 177.7320  0.99184587112159
20946,GSTAR 4,1990,1452.48,-1.0,-,Inactive,0,GEO,French Guiana,USA,Unknown,Unknown,Unknown,1 20946U 90100B   22134.84424201  .00000053  00000+0  00000+0 0  9994,2 20946  13.2638  20.6500 0007966   7.5101 219.7055  0.99140758 31995
4564,COSMOS 367,1970,104.46,-1.0,UNK,Inactive,0,LEO,Kazakhstan,Russia/USSR,Unknown,Unknown,Unknown,1 04564U 70079A   22135.56634856 -.00000074  00000+0  10919-4 0  9993,2 04564  65.2781 251.3886 0074990 282.5788  76.6893 13.78452934597233
20953,GORIZONT 22,1990,1435.38,-1.0,-,Inactive,0,GEO,Kazakhstan,Russia/USSR,Unknown,Unknown,Unknown,1 20953U 90102A   22135.44493941 -.00000340  00000+0  00000+0 0  9998,2 20953  14.0915 348.4519 0003927  32.9353 142.8119  1.00320892115391
20959,NAVSTAR 22 (USA 66),1990,765.32,-1.0,-,Inactive,0,MEO,USA,USA,Unknown,Unknown,Unknown,1 20959U 90103A   22135.23223162  .00000030  00000+0  00000+0 0  9993,2 20959  54.9408 103.3416 0018076  62.1298 298.0200  1.88155649227756
37344,ELEKTRO-L 1 (GOMS 2),2011,1434.44,1766.0,-,Inactive,1,GEO,Kazakhstan,Russia/USSR,Government,Earth Observation,Zenit,1 37344U 11001A   22135.61195260 -.00000279  00000+0  00000+0 0  9994,2 37344   6.2669  67.8832 0009160 357.8701 122.4116  1.00387058 41513
4578,COSMOS 371,1970,99.03,-1.0,UNK,Inactive,0,LEO,Russia,Russia/USSR,Unknown,Unknown,Unknown,1 04578U 70083A   22135.43367450  .00000265  00000+0  69549-4 0  9996,2 04578  73.9969 127.3246 0001523 133.9451 226.1837 14.54066893728351
29163,THAICOM 5,2006,1451.54,-1.0,-,Inactive,0,GEO,French Guiana,Thailand,Unknown,Unknown,Unknown,1 29163U 06020B   22135.61207351  .00000039  00000+0  00000+0 0  9997,2 29163   2.1662  90.3650 0004506  13.4476 196.3699  0.99205374 58435
4588,COSMOS 372,1970,100.27,-1.0,UNK,Inactive,0,LEO,Russia,Russia/USSR,Unknown,Unknown,Unknown,1 04588U 70086A   22135.33179931  .00000109  00000+0  46436-4 0  9991,2 04588  74.0569  75.7454 0014039 216.8576 259.8792 14.36083373698410
12783,COSMOS 1299,1981,103.94,-1.0,UNK,Inactive,0,LEO,Kazakhstan,Russia/USSR,Unknown,Unknown,Unknown,1 12783U 81081A   22135.54311749 -.00000047  00000+0  36281-4 0  9991,2 12783  65.1172 342.7173 0044598 324.8268  34.9852 13.85397242 60354
12785,COSMOS 1300,1981,94.78,-1.0,UNK,Inactive,0,LEO,Russia,Russia/USSR,Unknown,Unknown,Unknown,1 12785U 81082A   22135.37671758  .00004288  00000+0  20211-3 0  9999,2 12785  82.5014  98.0502 0002921 107.5476  46.6662 15.19243284223582
4594,COSMOS 374,1970,111.19,-1.0,UNK,Inactive,0,LEO,Kazakhstan,Russia/USSR,Unknown,Unknown,Unknown,1 04594U 70089A   22135.56635083  .00000132  00000+0  12126-3 0  9995,2 04594  62.9589 155.4241 0893755 284.8974  65.4815 12.95043840475364
20978,DMSP 5D-2 F10 (USA 68),1990,100.12,-1.0,-,Inactive,0,LEO,USA,USA,Unknown,Unknown,Unknown,1 20978U 90105A   22135.54969276  .00000365  00000+0  13130-3 0  9996,2 20978  98.7847 151.1603 0074013  45.6926 315.0297 14.38276988647678
4598,COSMOS 375,1970,111.09,-1.0,UNK,Inactive,0,LEO,Kazakhstan,Russia/USSR,Unknown,Unknown,Unknown,1 04598U 70091A   22135.41358925  .00000166  00000+0  99995-4 0  9990,2 04598  62.8186  20.6590 0964923  18.6287 344.7599 12.96198422434866
12791,COSMOS 1302,1981,100.41,-1.0,UNK,Inactive,0,LEO,Russia,Russia/USSR,Unknown,Unknown,Unknown,1 12791U 81084A   22135.32793397  .00000120  00000+0  51985-4 0  9991,2 12791  74.0279  88.7210 0019600 245.2178 114.6935 14.34177521128502
37372,COSMOS 2471 [GLONASS-K],2011,675.86,935.0,-,Inactive,1,MEO,Russia,Russia/USSR,Commercial/Military,Navigation/Global Positioning,Soyuz,1 37372U 11009A   22135.16856354 -.00000042  00000+0  00000+0 0  9999,2 37372  65.9496   4.4984 0015587 232.6895 314.9787  2.13061217 87257
12803,COSMOS 1304,1981,103.78,-1.0,UNK,Inactive,0,LEO,Russia,Russia/USSR,Unknown,Unknown,Unknown,1 12803U 81087A   22135.43640389  .00000056  00000+0  33246-4 0  9990,2 12803  82.9337  95.9184 0046253 158.1204 202.1949 13.87555214435746
37380,FASTRAC 2 (USA 228),2010,97.32,-1.0,-,Inactive,0,LEO,USA,USA,Unknown,Unknown,Unknown,1 37380U 10062M   22135.56630829  .00000713  00000+0  10239-3 0  9990,2 37380  71.9727 226.4793 0015594  30.8343 329.3732 14.79623815144503
21006,COSMOS 2109 [GLONASS],1990,675.73,-1.0,-,Inactive,0,MEO,Kazakhstan,Russia/USSR,Unknown,Unknown,Unknown,1 21006U 90110A   22134.12954071  .00000089  00000+0  00000+0 0  9996,2 21006  64.2595 122.5539 0084606 198.1476 261.3471  2.13102320244625
21007,COSMOS 2110 [GLONASS],1990,675.73,-1.0,-,Inactive,0,MEO,Kazakhstan,Russia/USSR,Unknown,Unknown,Unknown,1 21007U 90110B   22134.45295118  .00000086  00000+0  00000+0 0  9990,2 21007  64.2799 122.9307 0045265 199.9501 333.4826  2.13101253244635
21008,COSMOS 2111 [GLONASS],1990,675.74,-1.0,-,Inactive,0,MEO,Kazakhstan,Russia/USSR,Unknown,Unknown,Unknown,1 21008U 90110C   22133.54650059  .00000094  00000+0  00000+0 0  9998,2 21008  64.2601 122.6518 0019331 238.2833 323.1307  2.13098873244520
12818,COSMOS 1305,1981,263.7,-1.0,UNK,Inactive,0,MEO,Russia,Russia/USSR,Unknown,Unknown,Unknown,1 12818U 81088A   22135.44994467 -.00000046  00000+0 -20780-3 0  9996,2 12818  62.9575  90.3561 4800151 233.2755  72.5047  5.46082498811175
4630,OPS 5960 (DSP 1),1970,1197.83,-1.0,-,Inactive,0,MEO,USA,USA,Unknown,Unknown,Unknown,1 04630U 70093A   22133.99508826 -.00000096  00000+0  00000+0 0  9994,2 04630  12.5659  64.3214 1407855 214.2778 335.5693  1.20217346225867
37398,MERIDIAN 4,2011,717.77,2500.0,-,Inactive,1,MEO,Russia,Russia/USSR,Military,Communications,Soyuz,1 37398U 11018A   22135.50422174  .00000743  00000+0  10567-2 0  9993,2 37398  62.7333 291.3806 7284534 253.7707  19.4828  2.00623799 80805
21014,COSMOS 2112,1990,100.46,-1.0,UNK,Inactive,0,LEO,Russia,Russia/USSR,Unknown,Unknown,Unknown,1 21014U 90111A   22135.47744828  .00000134  00000+0  57842-4 0  9994,2 21014  74.0454 155.6768 0028032 350.1937   9.8664 14.33460669643182
21016,RADUGA 26,1990,1435.93,-1.0,-,Inactive,0,GEO,Kazakhstan,Russia/USSR,Unknown,Unknown,Unknown,1 21016U 90112A   22134.16576951  .00000069  00000+0  00000+0 0  9998,2 21016  14.1585 349.0880 0008964  83.9773 271.9482  1.00284087115260
12835,COSMOS 1308,1981,104.69,-1.0,UNK,Inactive,0,LEO,Russia,Russia/USSR,Unknown,Unknown,Unknown,1 12835U 81091A   22135.58697795  .00000069  00000+0  56060-4 0  9992,2 12835  82.9221 205.6452 0026336 305.1036 166.3054 13.75442434 40227
21028,COSMOS 2114,1990,114.04,-1.0,UNK,Inactive,0,LEO,Russia,Russia/USSR,Unknown,Unknown,Unknown,1 21028U 90114A   22135.46967792  .00000011  00000+0  46730-5 0  9997,2 21028  82.5745 107.7551 0006220  81.0415  42.3343 12.62742437446866
21029,COSMOS 2115,1990,113.97,-1.0,UNK,Inactive,0,LEO,Russia,Russia/USSR,Unknown,Unknown,Unknown,1 21029U 90114B   22135.36267917  .00000003  00000+0 -41410-4 0  9990,2 21029  82.5672  88.3503 0003643  13.6257 102.6158 12.63477651447755
21030,COSMOS 2116,1990,113.9,-1.0,UNK,Inactive,0,LEO,Russia,Russia/USSR,Unknown,Unknown,Unknown,1 21030U 90114C   22135.40115042  .00000006  00000+0 -23955-4 0  9995,2 21030  82.5741  84.0954 0003492 258.5758 223.4903 12.64266954448669
21031,COSMOS 2117,1990,113.84,-1.0,UNK,Inactive,0,LEO,Russia,Russia/USSR,Unknown,Unknown,Unknown,1 21031U 90114D   22135.58107118  .00000007  00000+0 -19673-4 0  9993,2 21031  82.5758  75.5321 0007233 221.2703 312.6801 12.64968515449420
21032,COSMOS 2118,1990,113.79,-1.0,UNK,Inactive,0,LEO,Russia,Russia/USSR,Unknown,Unknown,Unknown,1 21032U 90114E   22135.52043158  .00000012  00000+0  56417-5 0  9994,2 21032  82.5688  59.0129 0010620 190.7045 169.3823 12.65500001450009
21033,COSMOS 2119,1990,113.72,-1.0,UNK,Inactive,0,LEO,Russia,Russia/USSR,Unknown,Unknown,Unknown,1 21033U 90114F   22135.53439774  .00000019  00000+0  41626-4 0  9991,2 21033  82.5757  54.7952 0015016 138.2319  35.4938 12.66311455450978
21038,RADUGA-1 2,1990,1436.72,-1.0,-,Inactive,0,GEO,Kazakhstan,Russia/USSR,Unknown,Unknown,Unknown,1 21038U 90116A   22133.14205884  .00000043  00000+0  00000+0 0  9999,2 21038  14.1966 349.1702 0009991  93.7196 257.9696  1.00227965 32339
29230,KAZSAT-1,2006,1451.1,-1.0,-,Inactive,0,GEO,Kazakhstan,Kazakhstan,Unknown,Unknown,Unknown,1 29230U 06022A   22134.12652600 -.00000245  00000+0  00000+0 0  9990,2 29230   9.2297  46.3313 0003559  67.6547 121.6688  0.99235253 57804
12848,AUREOLE 3,1981,100.85,-1.0,UNK,Inactive,0,LEO,Russia,France,Unknown,Unknown,Unknown,1 12848U 81094A   22135.56706130  .00007202  00000+0  41928-3 0  9993,2 12848  82.4801 173.7230 0582442 150.1433 213.4375 14.27924755 44956
